CAS-2T & KS-1Q          
1 41847U 16066G   21098.13874869  .00000147  00000-0  31522-4 0  9998
2 41847  98.6093 156.9482 0366376  70.3400 293.6933 14.38171216231770
NAYIF-1 (EO-88)         
1 42017U 17008BX  21098.22815634  .00002770  00000-0  10466-3 0  9997
2 42017  97.3219 167.0814 0006036  15.2291 344.9129 15.27811154230539
ZHUHAI-1 02 (CAS-4B)    
1 42759U 17034B   21098.45029868  .00000282  00000-0  30369-4 0  9991
2 42759  43.0171 205.9148 0007937  81.5981   6.0025 15.10144309210567
ZHUHAI-1 01 (CAS-4A)    
1 42761U 17034D   21098.50639543  .00000320  00000-0  32600-4 0  9990
2 42761  43.0171 204.7123 0008155  86.0488 334.9482 15.10226002210577
MAX VALIER SAT          
1 42778U 17036P   21098.22311972  .00001573  00000-0  68893-4 0  9996
2 42778  97.2637 149.1135 0013570  68.3180 291.9501 15.23388393210599
RADFXSAT (FOX-1B)       
1 43017U 17073E   21098.53737875  .00000551  00000-0  47677-4 0  9994
2 43017  97.7119   5.2884 0255613 168.1512 192.5873 14.79418755182786
FOX-1D (AO-92)          
1 43137U 18004AC  21098.19621608  .00001587  00000-0  66397-4 0  9990
2 43137  97.4110 172.9419 0010556  98.2855 261.9580 15.25012464179940
DIWATA-2B               
1 43678U 18084H   21098.42518593 -.00000179  00000-0 -11982-4 0  9990
2 43678  97.9114 223.3896 0008592 286.1757  73.8522 14.91724876132994
ES'HAIL 2               
1 43700U 18090A   21098.22234082  .00000124  00000-0  00000-0 0  9992
2 43700   0.0189 221.6743 0002769 196.8956 243.9907  1.00275085  8669
FOX-1CLIFF (AO-95)      
1 43770U 18099N   21098.18589977  .00000183  00000-0  21763-4 0  9997
2 43770  97.6699 169.9099 0013141 294.7404  65.2449 14.95251438127958
ITASAT 1                
1 43786U 18099AE  21098.45364380  .00000139  00000-0  17700-4 0  9990
2 43786  97.6717 170.8010 0013728 286.1698  73.8012 14.95555243128022
JY1SAT (JO-97)          
1 43803U 18099AX  21098.16113757  .00000418  00000-0  42584-4 0  9996
2 43803  97.6684 170.2755 0013499 287.7328  72.2420 14.95790850127982
UWE-4                   
1 43880U 18111E   21098.19194358  .00000062  00000-0  10509-4 0  9992
2 43880  97.6909   7.1117 0012041 346.1446  13.9444 14.96791300124572
PSAT2 (NO-104)          
1 44354U 19036R   21098.50243525  .00017758  00000-0  23887-3 0  9994
2 44354  28.5299 232.8191 0332190 238.5394 118.2324 15.11732407 98374
BRICSAT2 (NO-103)       
1 44355U 19036S   21098.50437226  .00030915  00000-0  35627-3 0  9993
2 44355  28.5271 198.3044 0278559 294.8305  62.3564 15.25615603 98719
JAISAT-1                
1 44419U 19038F   21098.36713053  .00001362  00000-0  79368-4 0  9990
2 44419  97.5814  63.3696 0020706 189.5406 170.5435 15.13560495 97199
DUCHIFAT-3              
1 44854U 19089C   21098.54022398  .00000461  00000-0  43260-4 0  9995
2 44854  36.9645 154.0593 0009283 295.5567  64.4211 14.99411086 72604
RS-44 & BREEZE-KM R/B   
1 44909U 19096E   21098.18429840  .00000014  00000-0  20636-4 0  9993
2 44909  82.5224 159.5048 0216245 257.3134 100.3716 12.79709323 59856
ORBITAL FACTORY 2 (OF-2)
1 45113U 19071C   21098.18243352  .00004872  00000-0  15096-3 0  9995
2 45113  51.6437  18.1029 0012603  42.3929 317.8025 15.35242134 66372
HUSKYSAT-1 (HO-107)     
1 45119U 19071J   21098.13079171  .00003495  00000-0  11125-3 0  9991
2 45119  51.6436  17.7554 0011963  39.1630 321.0216 15.35308133 66366
BY70-2                  
1 45857U 20042B   21098.52506193  .00001175  00000-0  17459-3 0  9991
2 45857  97.9854 175.0013 0012814  83.7990 276.4682 14.76829822 41225
SALSAT                  
1 46495U 20068K   21098.57720037  .00000548  00000-0  44761-4 0  9998
2 46495  97.6868  36.5097 0016463 312.8607  47.1246 15.03392283 28832
BY70-3                  
1 46839U 20079N   21098.49630249  .00002874  00000-0  91883-4 0  9999
2 46839  97.2443 173.7487 0009021  96.6715   1.4391 15.33204308 23488
RADFXSAT-2 (AO-109)     
1 47311U 21002C   21097.97872660  .00000629  00000-0  39682-4 0  9994
2 47311  60.6867 194.9699 0025214   6.2114 353.9279 15.21430250 12145
UVSQ-SAT                
1 47438U 21006AB  21098.47899963  .00001000  00000-0  60314-4 0  9999
2 47438  97.4946 160.9357 0012204 347.0116  13.0799 15.12979568 11474
